[{"OBJECT_NAME":"STARLINK-5456","OBJECT_ID":"2023-021AR","EPOCH":"2026-03-09T14:20:41.522784","MEAN_MOTION":14.98329684,"ECCENTRICITY":0.0002996,"INCLINATION":70.0012,"RA_OF_ASC_NODE":164.5749,"ARG_OF_PERICENTER":263.0991,"MEAN_ANOMALY":96.9827,"EPHEMERIS_TYPE":0,"CLASSIFICATION_TYPE":"U","NORAD_CAT_ID":55667,"ELEMENT_SET_NO":999,"REV_AT_EPOCH":16927,"BSTAR":-7.6718e-5,"MEAN_MOTION_DOT":-1.008e-5,"MEAN_MOTION_DDOT":0},{"OBJECT_NAME":"CZ-4C DEB","OBJECT_ID":"2010-038C","EPOCH":"2026-03-09T11:39:53.947584","MEAN_MOTION":15.01546644,"ECCENTRICITY":0.00721012,"INCLINATION":97.7316,"RA_OF_ASC_NODE":260.9237,"ARG_OF_PERICENTER":198.3771,"MEAN_ANOMALY":193.4151,"EPHEMERIS_TYPE":0,"CLASSIFICATION_TYPE":"U","NORAD_CAT_ID":37567,"ELEMENT_SET_NO":999,"REV_AT_EPOCH":82756,"BSTAR":0.0017211285,"MEAN_MOTION_DOT":0.00023562,"MEAN_MOTION_DDOT":0}]
